[{"OBJECT_NAME":"NETSAT-1","OBJECT_ID":"2020-068W","EPOCH":"2026-03-09T22:42:38.711232","MEAN_MOTION":15.32042482,"ECCENTRICITY":0.00057337,"INCLINATION":97.8751,"RA_OF_ASC_NODE":63.2583,"ARG_OF_PERICENTER":18.5877,"MEAN_ANOMALY":341.5572,"EPHEMERIS_TYPE":0,"CLASSIFICATION_TYPE":"U","NORAD_CAT_ID":46506,"ELEMENT_SET_NO":999,"REV_AT_EPOCH":30009,"BSTAR":0.00059222329,"MEAN_MOTION_DOT":0.00018269,"MEAN_MOTION_DDOT":0},{"OBJECT_NAME":"STARLINK-35126","OBJECT_ID":"2025-198M","EPOCH":"2026-03-09T22:01:42.553632","MEAN_MOTION":15.3019193,"ECCENTRICITY":0.00011011,"INCLINATION":53.1571,"RA_OF_ASC_NODE":270.0337,"ARG_OF_PERICENTER":94.083,"MEAN_ANOMALY":266.0296,"EPHEMERIS_TYPE":0,"CLASSIFICATION_TYPE":"U","NORAD_CAT_ID":65503,"ELEMENT_SET_NO":999,"REV_AT_EPOCH":2865,"BSTAR":0.0010687684,"MEAN_MOTION_DOT":0.00031421,"MEAN_MOTION_DDOT":0}]
